QIANFAN-17              
1 60395U 24140S   25350.28897291  .00000095  00000+0  12835-3 0  9990
2 60395  88.9774 299.0672 0014092 188.8364 171.2541 13.50977604 68611
QIANFAN-18              
1 60396U 24140T   25350.34245694  .00000095  00000+0  12781-3 0  9992
2 60396  88.9767 298.5950 0013992 170.4033 189.7388 13.50977634 68015
QIANFAN-19              
1 61552U 24185A   25350.26387389  .00000472  00000+0  23992-3 0  9990
2 61552  88.9822  77.5387 0004918 299.8579  60.2118 14.14299567 70166
QIANFAN-20              
1 61553U 24185B   25350.31005211  .00000531  00000+0  29966-3 0  9991
2 61553  88.9821  77.8608 0004901 351.5289   8.5812 14.08848356 69995
QIANFAN-21              
1 61554U 24185C   25350.26749142  .00000632  00000+0  27642-3 0  9995
2 61554  88.9737  76.5675 0010160   3.7800 356.3466 14.22612857 70476
QIANFAN-22              
1 61555U 24185D   25350.32652053  .00000202  00000+0  16349-3 0  9992
2 61555  88.9805  78.8544 0005954   3.4155 356.7056 13.86304403 69435
QIANFAN-23              
1 61556U 24185E   25350.30495639  .00000450  00000+0  21977-3 0  9994
2 61556  88.9814  77.3420 0005835 314.5134  45.5577 14.16296078 70259
QIANFAN-24              
1 61557U 24185F   25350.26718726  .00000600  00000+0  25617-3 0  9997
2 61557  88.9795  76.7456 0007321 289.3549  70.6851 14.23815174 70527
